<?xml version="1.0" encoding="UTF-8"?>
<ndm xmlns:xsi="http://www.w3.org/2001/XMLSchema-instance" xsi:noNamespaceSchemaLocation="https://sanaregistry.org/r/ndmxml_unqualified/ndmxml-2.0.0-master-2.0.xsd">
<omm id="CCSDS_OMM_VERS" version="2.0">
<header><CREATION_DATE/><ORIGINATOR/></header><body><segment><metadata><OBJECT_NAME>KUIPER-00095</OBJECT_NAME><OBJECT_ID>2025-171C</OBJECT_ID><CENTER_NAME>EARTH</CENTER_NAME><REF_FRAME>TEME</REF_FRAME><TIME_SYSTEM>UTC</TIME_SYSTEM><MEAN_ELEMENT_THEORY>SGP4</MEAN_ELEMENT_THEORY></metadata><data><meanElements><EPOCH>2025-09-16T15:29:15.030240</EPOCH><MEAN_MOTION>15.35888026</MEAN_MOTION><ECCENTRICITY>.00048711</ECCENTRICITY><INCLINATION>51.8735</INCLINATION><RA_OF_ASC_NODE>230.5447</RA_OF_ASC_NODE><ARG_OF_PERICENTER>284.6465</ARG_OF_PERICENTER><MEAN_ANOMALY>75.3981</MEAN_ANOMALY></meanElements><tleParameters><EPHEMERIS_TYPE>0</EPHEMERIS_TYPE><CLASSIFICATION_TYPE>U</CLASSIFICATION_TYPE><NORAD_CAT_ID>65134</NORAD_CAT_ID><ELEMENT_SET_NO>999</ELEMENT_SET_NO><REV_AT_EPOCH>680</REV_AT_EPOCH><BSTAR>.110518E-2</BSTAR><MEAN_MOTION_DOT>.39025E-3</MEAN_MOTION_DOT><MEAN_MOTION_DDOT>0</MEAN_MOTION_DDOT></tleParameters></data></segment></body></omm>
<omm id="CCSDS_OMM_VERS" version="2.0">
<header><CREATION_DATE/><ORIGINATOR/></header><body><segment><metadata><OBJECT_NAME>KUIPER-00096</OBJECT_NAME><OBJECT_ID>2025-171D</OBJECT_ID><CENTER_NAME>EARTH</CENTER_NAME><REF_FRAME>TEME</REF_FRAME><TIME_SYSTEM>UTC</TIME_SYSTEM><MEAN_ELEMENT_THEORY>SGP4</MEAN_ELEMENT_THEORY></metadata><data><meanElements><EPOCH>2025-09-17T06:57:21.906432</EPOCH><MEAN_MOTION>15.36234708</MEAN_MOTION><ECCENTRICITY>.0003839</ECCENTRICITY><INCLINATION>51.8712</INCLINATION><RA_OF_ASC_NODE>227.3641</RA_OF_ASC_NODE><ARG_OF_PERICENTER>270.4277</ARG_OF_PERICENTER><MEAN_ANOMALY>89.6270</MEAN_ANOMALY></meanElements><tleParameters><EPHEMERIS_TYPE>0</EPHEMERIS_TYPE><CLASSIFICATION_TYPE>U</CLASSIFICATION_TYPE><NORAD_CAT_ID>65135</NORAD_CAT_ID><ELEMENT_SET_NO>999</ELEMENT_SET_NO><REV_AT_EPOCH>690</REV_AT_EPOCH><BSTAR>.11476919E-2</BSTAR><MEAN_MOTION_DOT>.41004E-3</MEAN_MOTION_DOT><MEAN_MOTION_DDOT>0</MEAN_MOTION_DDOT></tleParameters></data></segment></body></omm>
<omm id="CCSDS_OMM_VERS" version="2.0">
<header><CREATION_DATE/><ORIGINATOR/></header><body><segment><metadata><OBJECT_NAME>KUIPER-00097</OBJECT_NAME><OBJECT_ID>2025-171E</OBJECT_ID><CENTER_NAME>EARTH</CENTER_NAME><REF_FRAME>TEME</REF_FRAME><TIME_SYSTEM>UTC</TIME_SYSTEM><MEAN_ELEMENT_THEORY>SGP4</MEAN_ELEMENT_THEORY></metadata><data><meanElements><EPOCH>2025-09-17T07:08:09.948768</EPOCH><MEAN_MOTION>15.35850720</MEAN_MOTION><ECCENTRICITY>.00029626</ECCENTRICITY><INCLINATION>51.8749</INCLINATION><RA_OF_ASC_NODE>227.4140</RA_OF_ASC_NODE><ARG_OF_PERICENTER>296.3007</ARG_OF_PERICENTER><MEAN_ANOMALY>63.7675</MEAN_ANOMALY></meanElements><tleParameters><EPHEMERIS_TYPE>0</EPHEMERIS_TYPE><CLASSIFICATION_TYPE>U</CLASSIFICATION_TYPE><NORAD_CAT_ID>65136</NORAD_CAT_ID><ELEMENT_SET_NO>999</ELEMENT_SET_NO><REV_AT_EPOCH>689</REV_AT_EPOCH><BSTAR>.83534051E-3</BSTAR><MEAN_MOTION_DOT>.29323E-3</MEAN_MOTION_DOT><MEAN_MOTION_DDOT>0</MEAN_MOTION_DDOT></tleParameters></data></segment></body></omm>
<omm id="CCSDS_OMM_VERS" version="2.0">
<header><CREATION_DATE/><ORIGINATOR/></header><body><segment><metadata><OBJECT_NAME>KUIPER-00098</OBJECT_NAME><OBJECT_ID>2025-171F</OBJECT_ID><CENTER_NAME>EARTH</CENTER_NAME><REF_FRAME>TEME</REF_FRAME><TIME_SYSTEM>UTC</TIME_SYSTEM><MEAN_ELEMENT_THEORY>SGP4</MEAN_ELEMENT_THEORY></metadata><data><meanElements><EPOCH>2025-09-17T08:19:24.657024</EPOCH><MEAN_MOTION>15.36451690</MEAN_MOTION><ECCENTRICITY>.00044941</ECCENTRICITY><INCLINATION>51.8739</INCLINATION><RA_OF_ASC_NODE>227.0030</RA_OF_ASC_NODE><ARG_OF_PERICENTER>254.8961</ARG_OF_PERICENTER><MEAN_ANOMALY>105.1528</MEAN_ANOMALY></meanElements><tleParameters><EPHEMERIS_TYPE>0</EPHEMERIS_TYPE><CLASSIFICATION_TYPE>U</CLASSIFICATION_TYPE><NORAD_CAT_ID>65137</NORAD_CAT_ID><ELEMENT_SET_NO>999</ELEMENT_SET_NO><REV_AT_EPOCH>625</REV_AT_EPOCH><BSTAR>.11384723E-2</BSTAR><MEAN_MOTION_DOT>.40961E-3</MEAN_MOTION_DOT><MEAN_MOTION_DDOT>0</MEAN_MOTION_DDOT></tleParameters></data></segment></body></omm>
<omm id="CCSDS_OMM_VERS" version="2.0">
<header><CREATION_DATE/><ORIGINATOR/></header><body><segment><metadata><OBJECT_NAME>KUIPER-00099</OBJECT_NAME><OBJECT_ID>2025-171G</OBJECT_ID><CENTER_NAME>EARTH</CENTER_NAME><REF_FRAME>TEME</REF_FRAME><TIME_SYSTEM>UTC</TIME_SYSTEM><MEAN_ELEMENT_THEORY>SGP4</MEAN_ELEMENT_THEORY></metadata><data><meanElements><EPOCH>2025-09-17T06:49:13.954656</EPOCH><MEAN_MOTION>15.36442124</MEAN_MOTION><ECCENTRICITY>.00036948</ECCENTRICITY><INCLINATION>51.8717</INCLINATION><RA_OF_ASC_NODE>227.3363</RA_OF_ASC_NODE><ARG_OF_PERICENTER>257.0372</ARG_OF_PERICENTER><MEAN_ANOMALY>103.0202</MEAN_ANOMALY></meanElements><tleParameters><EPHEMERIS_TYPE>0</EPHEMERIS_TYPE><CLASSIFICATION_TYPE>U</CLASSIFICATION_TYPE><NORAD_CAT_ID>65138</NORAD_CAT_ID><ELEMENT_SET_NO>999</ELEMENT_SET_NO><REV_AT_EPOCH>689</REV_AT_EPOCH><BSTAR>.12084051E-2</BSTAR><MEAN_MOTION_DOT>.43498E-3</MEAN_MOTION_DOT><MEAN_MOTION_DDOT>0</MEAN_MOTION_DDOT></tleParameters></data></segment></body></omm>
<omm id="CCSDS_OMM_VERS" version="2.0">
<header><CREATION_DATE/><ORIGINATOR/></header><body><segment><metadata><OBJECT_NAME>KUIPER-00100</OBJECT_NAME><OBJECT_ID>2025-171H</OBJECT_ID><CENTER_NAME>EARTH</CENTER_NAME><REF_FRAME>TEME</REF_FRAME><TIME_SYSTEM>UTC</TIME_SYSTEM><MEAN_ELEMENT_THEORY>SGP4</MEAN_ELEMENT_THEORY></metadata><data><meanElements><EPOCH>2025-09-17T06:56:26.087712</EPOCH><MEAN_MOTION>15.36175027</MEAN_MOTION><ECCENTRICITY>.00042078</ECCENTRICITY><INCLINATION>51.8710</INCLINATION><RA_OF_ASC_NODE>227.3605</RA_OF_ASC_NODE><ARG_OF_PERICENTER>269.7270</ARG_OF_PERICENTER><MEAN_ANOMALY>90.3234</MEAN_ANOMALY></meanElements><tleParameters><EPHEMERIS_TYPE>0</EPHEMERIS_TYPE><CLASSIFICATION_TYPE>U</CLASSIFICATION_TYPE><NORAD_CAT_ID>65139</NORAD_CAT_ID><ELEMENT_SET_NO>999</ELEMENT_SET_NO><REV_AT_EPOCH>689</REV_AT_EPOCH><BSTAR>.11787537E-2</BSTAR><MEAN_MOTION_DOT>.42051E-3</MEAN_MOTION_DOT><MEAN_MOTION_DDOT>0</MEAN_MOTION_DDOT></tleParameters></data></segment></body></omm>
<omm id="CCSDS_OMM_VERS" version="2.0">
<header><CREATION_DATE/><ORIGINATOR/></header><body><segment><metadata><OBJECT_NAME>KUIPER-00102</OBJECT_NAME><OBJECT_ID>2025-171J</OBJECT_ID><CENTER_NAME>EARTH</CENTER_NAME><REF_FRAME>TEME</REF_FRAME><TIME_SYSTEM>UTC</TIME_SYSTEM><MEAN_ELEMENT_THEORY>SGP4</MEAN_ELEMENT_THEORY></metadata><data><meanElements><EPOCH>2025-09-17T13:21:56.610144</EPOCH><MEAN_MOTION>15.35835523</MEAN_MOTION><ECCENTRICITY>.00037221</ECCENTRICITY><INCLINATION>51.8748</INCLINATION><RA_OF_ASC_NODE>226.1510</RA_OF_ASC_NODE><ARG_OF_PERICENTER>290.1729</ARG_OF_PERICENTER><MEAN_ANOMALY>69.8856</MEAN_ANOMALY></meanElements><tleParameters><EPHEMERIS_TYPE>0</EPHEMERIS_TYPE><CLASSIFICATION_TYPE>U</CLASSIFICATION_TYPE><NORAD_CAT_ID>65140</NORAD_CAT_ID><ELEMENT_SET_NO>999</ELEMENT_SET_NO><REV_AT_EPOCH>693</REV_AT_EPOCH><BSTAR>.84768725E-3</BSTAR><MEAN_MOTION_DOT>.29751E-3</MEAN_MOTION_DOT><MEAN_MOTION_DDOT>0</MEAN_MOTION_DDOT></tleParameters></data></segment></body></omm>
<omm id="CCSDS_OMM_VERS" version="2.0">
<header><CREATION_DATE/><ORIGINATOR/></header><body><segment><metadata><OBJECT_NAME>KUIPER-00103</OBJECT_NAME><OBJECT_ID>2025-171K</OBJECT_ID><CENTER_NAME>EARTH</CENTER_NAME><REF_FRAME>TEME</REF_FRAME><TIME_SYSTEM>UTC</TIME_SYSTEM><MEAN_ELEMENT_THEORY>SGP4</MEAN_ELEMENT_THEORY></metadata><data><meanElements><EPOCH>2025-09-17T10:07:18.401664</EPOCH><MEAN_MOTION>15.35760731</MEAN_MOTION><ECCENTRICITY>.00034963</ECCENTRICITY><INCLINATION>51.8706</INCLINATION><RA_OF_ASC_NODE>226.7463</RA_OF_ASC_NODE><ARG_OF_PERICENTER>271.0386</ARG_OF_PERICENTER><MEAN_ANOMALY>89.0199</MEAN_ANOMALY></meanElements><tleParameters><EPHEMERIS_TYPE>0</EPHEMERIS_TYPE><CLASSIFICATION_TYPE>U</CLASSIFICATION_TYPE><NORAD_CAT_ID>65141</NORAD_CAT_ID><ELEMENT_SET_NO>999</ELEMENT_SET_NO><REV_AT_EPOCH>691</REV_AT_EPOCH><BSTAR>.77877787E-3</BSTAR><MEAN_MOTION_DOT>.27226E-3</MEAN_MOTION_DOT><MEAN_MOTION_DDOT>0</MEAN_MOTION_DDOT></tleParameters></data></segment></body></omm>

</ndm>
