KUIPER-00095            
1 65134U 25171C   25259.64531285  .00039025  00000+0  11052-2 0  9991
2 65134  51.8735 230.5447 0004871 284.6465  75.3981 15.35888026  6803
KUIPER-00096            
1 65135U 25171D   25260.28983688  .00041004  00000+0  11477-2 0  9993
2 65135  51.8712 227.3641 0003839 270.4277  89.6270 15.36234708  6909
KUIPER-00097            
1 65136U 25171E   25260.29733737  .00029323  00000+0  83534-3 0  9997
2 65136  51.8749 227.4140 0002962 296.3007  63.7675 15.35850720  6896
KUIPER-00098            
1 65137U 25171F   25260.34681316  .00040961  00000+0  11385-2 0  9994
2 65137  51.8739 227.0030 0004494 254.8961 105.1528 15.36451690  6252
KUIPER-00099            
1 65138U 25171G   25260.28418929  .00043498  00000+0  12084-2 0  9991
2 65138  51.8717 227.3363 0003694 257.0372 103.0202 15.36442124  6891
KUIPER-00100            
1 65139U 25171H   25260.28919083  .00042051  00000+0  11788-2 0  9993
2 65139  51.8710 227.3605 0004207 269.7270  90.3234 15.36175027  6890
KUIPER-00102            
1 65140U 25171J   25260.55690521  .00029751  00000+0  84769-3 0  9990
2 65140  51.8748 226.1510 0003722 290.1729  69.8856 15.35835523  6932
KUIPER-00103            
1 65141U 25171K   25260.42174076  .00027226  00000+0  77878-3 0  9997
2 65141  51.8706 226.7463 0003496 271.0386  89.0199 15.35760731  6915
